[{"OBJECT_NAME":"TIANMU-1 08","OBJECT_ID":"2023-101B","EPOCH":"2026-03-07T00:03:25.475616","MEAN_MOTION":15.29204229,"ECCENTRICITY":0.00063808,"INCLINATION":97.2717,"RA_OF_ASC_NODE":118.7901,"ARG_OF_PERICENTER":134.2174,"MEAN_ANOMALY":225.9592,"EPHEMERIS_TYPE":0,"CLASSIFICATION_TYPE":"U","NORAD_CAT_ID":57400,"ELEMENT_SET_NO":999,"REV_AT_EPOCH":14602,"BSTAR":1.4774513e-5,"MEAN_MOTION_DOT":3.46e-6,"MEAN_MOTION_DDOT":0},{"OBJECT_NAME":"STARLINK-36482","OBJECT_ID":"2026-002E","EPOCH":"2026-03-09T01:30:09.880704","MEAN_MOTION":15.27577953,"ECCENTRICITY":0.00013602,"INCLINATION":43.0008,"RA_OF_ASC_NODE":328.752,"ARG_OF_PERICENTER":281.0534,"MEAN_ANOMALY":79.0165,"EPHEMERIS_TYPE":0,"CLASSIFICATION_TYPE":"U","NORAD_CAT_ID":67309,"ELEMENT_SET_NO":999,"REV_AT_EPOCH":1098,"BSTAR":0.0015647971,"MEAN_MOTION_DOT":0.00043047,"MEAN_MOTION_DDOT":0}]
